     2.10           N: GPS NAV DATA                         RINEX VERSION / TYPE
teqc  2013Mar15     gpsops              20140512 00:05:33UTCPGM / RUN BY / DATE
Linux 2.4.21-27.ELsmp|Opteron|gcc -static|Linux x86_64|=+   COMMENT
MADR                                    MARKER NAME         COMMENT
13407S012                               MARKER NUMBER       COMMENT
4849202.3940 -360328.9929 4114913.1862                      COMMENT
                                                            COMMENT
This data is provided as a public service by NASA/JPL.      COMMENT
No warranty is expressed or implied regarding suitability   COMMENT
for use.  For further information, contact:                 COMMENT
Dave Stowers, NASA/JPL m/s 238-600                          COMMENT
4800 Oak Grove Drive, Pasadena CA 91109 USA                 COMMENT
                                                            END OF HEADER
17 14  5 11  8  0  0.0-9.220326319337D-05-3.069544618484D-12 0.000000000000D+00
    6.100000000000D+01 1.953125000000D+01 4.719125141933D-09 5.352149956586D-01
    8.419156074524D-07 9.288472239859D-03 5.530193448067D-06 5.153583866119D+03
    2.880000000000D+04-9.685754776001D-08-2.452829101926D+00 7.078051567078D-08
    9.684673865883D-01 2.772187500000D+02-2.099979105565D+00-8.349633510036D-09
    3.200133298397D-10 1.000000000000D+00 1.792000000000D+03 0.000000000000D+00
    2.000000000000D+00 0.000000000000D+00-1.024454832077D-08 6.100000000000D+01
    2.160000000000D+04 4.000000000000D+00
23 14  5 11  8  0  0.0-1.956243067980D-05-3.069544618484D-12 0.000000000000D+00
    2.800000000000D+01 6.531250000000D+01 4.998065332340D-09-5.516300176044D-01
    3.246590495110D-06 9.294533403590D-03 3.755092620850D-06 5.153786678314D+03
    2.880000000000D+04 1.620501279831D-07 6.556640645944D-01 1.080334186554D-07
    9.521356983079D-01 3.010625000000D+02-2.793387585977D+00-8.561785204149D-09
    4.321608583773D-11 1.000000000000D+00 1.792000000000D+03 0.000000000000D+00
    2.000000000000D+00 0.000000000000D+00-2.002343535423D-08 2.800000000000D+01
    2.160000000000D+04 4.000000000000D+00
 4 14  5 11  8  0  0.0 6.854534149170D-06 0.000000000000D+00 0.000000000000D+00
    1.750000000000D+02-5.312500000000D+01 5.271648156734D-09 2.395228880840D+00
   -2.872198820114D-06 1.056279509794D-02 7.187947630882D-06 5.153730730057D+03
    2.880000000000D+04-3.725290298462D-09-1.456350144703D+00-1.695007085800D-07
    9.380212306122D-01 2.296250000000D+02 1.093937164040D+00-8.231771457751D-09
   -3.332281660049D-10 1.000000000000D+00 1.792000000000D+03 0.000000000000D+00
    2.800000000000D+00 0.000000000000D+00-6.519258022308D-09 1.750000000000D+02
    2.163000000000D+04 4.000000000000D+00
 8 14  5 11  8  0  0.0 1.350976526737D-05 3.410605131648D-13 0.000000000000D+00
    4.300000000000D+01-7.800000000000D+01 3.585506493594D-09-2.738965653896D+00
   -4.099681973457D-06 1.368201163132D-02 7.200986146927D-06 5.153478734970D+03
    2.880000000000D+04-1.285225152969D-07 1.816525464891D+00-1.564621925354D-07
    9.965650806729D-01 2.596562500000D+02-2.779180945665D+00-7.589601851667D-09
   -3.039412318009D-10 1.000000000000D+00 1.792000000000D+03 0.000000000000D+00
    2.000000000000D+00 0.000000000000D+00-4.190951585770D-09 4.300000000000D+01
    2.163000000000D+04 4.000000000000D+00
13 14  5 11  8  0  0.0 9.648501873016D-07-3.865352482535D-12 0.000000000000D+00
    4.100000000000D+01 5.084375000000D+01 4.391254341941D-09 1.114967022509D-01
    2.499669790268D-06 5.374564207159D-03 3.736466169357D-06 5.153589950562D+03
    2.880000000000D+04-7.450580596924D-09 7.524643342456D-01-6.146728992462D-08
    9.778490685273D-01 3.174687500000D+02 2.249632836752D+00-8.262129865158D-09
    3.285851154604D-11 1.000000000000D+00 1.792000000000D+03 0.000000000000D+00
    2.800000000000D+00 0.000000000000D+00-1.117587089539D-08 4.100000000000D+01
    2.163000000000D+04 4.000000000000D+00
 5 14  5 11  8  0  0.0-3.735767677426D-04 2.387423592154D-12 0.000000000000D+00
    1.900000000000D+01 5.368750000000D+01 4.803057209469D-09 1.373889561912D+00
    3.034248948097D-06 3.579225856811D-03 1.098401844501D-05 5.153595468521D+03
    2.880000000000D+04 2.793967723846D-08-4.046879718498D-01 7.450580596924D-08
    9.476539727003D-01 1.608750000000D+02 3.140351472930D-01-8.124981295227D-09
   -9.143237995420D-11 1.000000000000D+00 1.792000000000D+03 0.000000000000D+00
    2.000000000000D+00 0.000000000000D+00-1.024454832077D-08 1.900000000000D+01
    2.163000000000D+04 4.000000000000D+00
20 14  5 11  8  0  0.0 1.883022487164D-04 3.865352482535D-12 0.000000000000D+00
    2.200000000000D+01 3.528125000000D+01 5.139499795082D-09 2.666160704935D+00
    1.816079020500D-06 5.784077919088D-03 1.115724444389D-05 5.153803409576D+03
    2.880000000000D+04 2.980232238770D-08-4.626811590646D-01-1.210719347000D-07
    9.271697314723D-01 1.420000000000D+02 1.331374472222D+00-8.154982544899D-09
   -1.032185851827D-10 1.000000000000D+00 1.792000000000D+03 0.000000000000D+00
    2.000000000000D+00 0.000000000000D+00-8.381903171539D-09 2.200000000000D+01
    2.163000000000D+04 4.000000000000D+00
16 14  5 11  8  0  0.0-2.190228551626D-04 1.932676241267D-12 0.000000000000D+00
    2.700000000000D+01-1.181250000000D+01 3.546576300567D-09 1.484242354389D+00
   -4.488974809647D-07 7.743488065898D-03 1.171417534351D-05 5.153591596603D+03
    2.880000000000D+04-2.235174179077D-08 2.798735891589D+00 7.823109626770D-08
    9.883295760310D-01 1.685312500000D+02 1.977326128599D-01-7.563172179336D-09
    2.185805333280D-10 1.000000000000D+00 1.792000000000D+03 0.000000000000D+00
    2.000000000000D+00 0.000000000000D+00-1.024454832077D-08 2.700000000000D+01
    2.307000000000D+04 4.000000000000D+00
13 14  5 11  7 59 44.0 9.634532034397D-07-3.865352482535D-12 0.000000000000D+00
    2.000000000000D+00 5.084375000000D+01 4.391254341941D-09 1.091632733056D-01
    2.499669790268D-06 5.374558968470D-03 3.736466169357D-06 5.153589954376D+03
    2.878400000000D+04-7.450580596924D-09 7.524644834632D-01-6.146728992462D-08
    9.778490699902D-01 3.174687500000D+02 2.249632389099D+00-8.261772707424D-09
    3.285851154604D-11 1.000000000000D+00 1.792000000000D+03 0.000000000000D+00
    2.000000000000D+00 0.000000000000D+00-1.117587089539D-08 2.000000000000D+00
    2.400000000000D+04 4.000000000000D+00
26 14  5 11  8  0  0.0 8.230563253164D-05-1.170974428533D-11 0.000000000000D+00
    2.600000000000D+01 4.543750000000D+01 4.673766109690D-09-6.858828553054D-01
    2.667307853699D-06 2.140552958008D-02 3.859400749207D-06 5.153688411713D+03
    2.880000000000D+04-1.881271600723D-07 7.437790188673D-01 2.421438694000D-07
    9.752440795619D-01 3.138125000000D+02 1.282025859580D+00-8.665718104800D-09
    3.678724662220D-11 1.000000000000D+00 1.792000000000D+03 0.000000000000D+00
    2.000000000000D+00 0.000000000000D+00-6.053596735001D-09 2.600000000000D+01
    2.424000000000D+04 4.000000000000D+00
 4 14  5 11  7 59 44.0 6.860122084618D-06 0.000000000000D+00 0.000000000000D+00
    1.200000000000D+01-5.312500000000D+01 5.272005314468D-09 2.392895795680D+00
   -2.872198820114D-06 1.056279765908D-02 7.187947630882D-06 5.153730737686D+03
    2.878400000000D+04-3.725290298462D-09-1.456349998412D+00-1.695007085800D-07
    9.380212364639D-01 2.296250000000D+02 1.093936507189D+00-8.231771457751D-09
   -3.332281660049D-10 1.000000000000D+00 1.792000000000D+03 0.000000000000D+00
    2.000000000000D+00 0.000000000000D+00-6.519258022308D-09 1.200000000000D+01
    2.535000000000D+04 4.000000000000D+00
10 14  5 11  7 59 44.0-1.250780187547D-04-1.591615728103D-12 0.000000000000D+00
    3.600000000000D+01 4.556250000000D+01 4.888060750208D-09 1.612476919736D+00
    2.419576048851D-06 1.354424946476D-02 1.130998134613D-05 5.153738288879D+03
    2.878400000000D+04-3.799796104431D-07-3.873360708335D-01 1.862645149231D-08
    9.424622124884D-01 1.560312500000D+02 8.632220682983D-01-8.226056934004D-09
   -5.071639825584D-11 1.000000000000D+00 1.792000000000D+03 0.000000000000D+00
    2.000000000000D+00 0.000000000000D+00-2.793967723846D-09 3.600000000000D+01
    2.709000000000D+04 4.000000000000D+00
28 14  5 11  7 59 44.0 3.538941964507D-04 2.842170943040D-12 0.000000000000D+00
    1.400000000000D+01-1.837500000000D+01 3.626579633027D-09 1.379378072131D+00
   -1.056119799614D-06 1.912670815364D-02 1.081079244614D-05 5.153677017212D+03
    2.878400000000D+04-2.961605787277D-07 2.804526160846D+00-4.079192876816D-07
    9.868512475727D-01 1.873125000000D+02-1.715733923159D+00-7.749608516587D-09
    3.064413359402D-10 1.000000000000D+00 1.792000000000D+03 0.000000000000D+00
    2.000000000000D+00 0.000000000000D+00-1.071020960808D-08 1.400000000000D+01
    2.715000000000D+04 4.000000000000D+00
 2 14  5 11 10  0  0.0 4.946892149746D-04 2.160049916711D-12 0.000000000000D+00
    3.400000000000D+01-4.434375000000D+01 5.387367262614D-09 7.403693371832D-02
   -2.285465598106D-06 1.351864100434D-02 7.089227437973D-06 5.153599651337D+03
    3.600000000000D+04 1.862645149231D-09-1.472453693835D+00 2.067536115646D-07
    9.389953336333D-01 2.357187500000D+02-2.428236534690D+00-8.645717271685D-09
   -2.892977646988D-10 1.000000000000D+00 1.792000000000D+03 0.000000000000D+00
    2.000000000000D+00 0.000000000000D+00-2.048909664154D-08 3.400000000000D+01
    2.880000000000D+04 4.000000000000D+00
 7 14  5 11 10  0  0.0 3.450340591371D-04 4.206412995700D-12 0.000000000000D+00
    5.400000000000D+01-8.237500000000D+01 4.240890935844D-09-1.166819055177D+00
   -4.373490810394D-06 7.286505424418D-03 5.887821316719D-06 5.153631601334D+03
    3.600000000000D+04 1.527369022369D-07 1.717362692261D+00-2.197921276093D-07
    9.732981147103D-01 2.741875000000D+02-2.842026250327D+00-8.041763543159D-09
   -4.621621080497D-10 1.000000000000D+00 1.792000000000D+03 0.000000000000D+00
    2.000000000000D+00 0.000000000000D+00-1.071020960808D-08 5.400000000000D+01
    2.880000000000D+04 4.000000000000D+00
